     3.04           N: GNSS NAV DATA    C: BEIDOU           RINEX VERSION / TYPE
sbf2rin-13.8.0                          20210625 002242 UTC PGM / RUN BY / DATE 
ABPO                                    MARKER NAME         COMMENT
33302M001                               MARKER NUMBER       COMMENT
  4097216.5539  4429119.1897 -2065771.1988                  COMMENT
                                                            END OF HEADER       
C11 2021 06 24 23 00 00 4.193658242002E-04 2.232258822232E-11 1.355252715607E-19
     1.900000000000E+01 3.750000000000E-01 3.594792594684E-09 7.466967446080E-01
    -1.084990799427E-07 1.803381252103E-03-3.291293978691E-06 5.282606222153E+03
     4.284000000000E+05-6.379559636116E-08 1.692161434070E+00 0.000000000000E+00
     9.902008486742E-01 4.380937500000E+02-2.042496595256E+00-7.253516423788E-09
     8.893227581482E-11 0.000000000000E+00 8.070000000000E+02 0.000000000000E+00
     2.000000000000E+00 0.000000000000E+00 4.200000000000E-09 1.200000000000E-09
     4.284180000000E+05 1.800000000000E+01
C12 2021 06 24 23 00 00 8.330320706591E-04-1.277644656739E-11 6.098637220231E-19
     2.100000000000E+01-2.515625000000E+00 3.561219767669E-09 1.545716321106E+00
     3.539025783539E-08 8.900482207537E-04-3.022141754627E-06 5.282606721878E+03
     4.284000000000E+05-7.124617695808E-08 1.680772849427E+00-8.475035429001E-08
     9.888420508634E-01 4.334218750000E+02-2.066607683968E+00-7.195656870849E-09
     1.314340461842E-10 0.000000000000E+00 8.070000000000E+02 0.000000000000E+00
     2.000000000000E+00 0.000000000000E+00 3.100000000000E-09-3.000000000000E-10
     4.284180000000E+05 7.000000000000E+00
C21 2021 06 24 23 00 00-9.350420441478E-04 1.305622276959E-13 0.000000000000E+00
     1.000000000000E+00-2.857812500000E+01 3.670867192067E-09-1.361309246166E+00
    -1.445878297091E-06 7.976033957675E-04 1.179985702038E-05 5.282627471924E+03
     4.284000000000E+05-3.864988684654E-08-2.523901094223E+00-2.933666110039E-08
     9.657344303268E-01 1.223125000000E+02-8.451599629791E-01-6.487770241672E-09
     7.478882954066E-10 0.000000000000E+00 8.070000000000E+02 0.000000000000E+00
     2.000000000000E+00 0.000000000000E+00 1.410000000000E-08 1.410000000000E-08
     4.284180000000E+05 1.000000000000E+00
C43 2021 06 24 23 00 00-7.916144095361E-04-1.737276988933E-11 0.000000000000E+00
     1.000000000000E+00 2.132812500000E+01 4.179459805563E-09-2.359534030806E+00
     8.465722203255E-07 5.526106106117E-04-3.915745764971E-06 5.282617002487E+03
     4.284000000000E+05-5.261972546577E-08 1.649396121020E+00-1.862645149231E-08
     9.600905362645E-01 4.392031250000E+02 6.918618102729E-01-7.483883162345E-09
     1.478633019572E-10 0.000000000000E+00 8.070000000000E+02 0.000000000000E+00
     2.000000000000E+00 0.000000000000E+00-3.500000000000E-09-3.500000000000E-09
     4.284180000000E+05 1.000000000000E+00
C44 2021 06 24 23 00 00 2.563808811828E-04 1.928501802695E-11 0.000000000000E+00
     1.000000000000E+00 5.343750000000E+00 4.104813839116E-09-6.773288631573E-01
     4.349276423454E-07 7.403503404930E-04-2.909451723099E-06 5.282618610382E+03
     4.284000000000E+05 2.048909664154E-08 1.649412710511E+00-8.800998330116E-08
     9.605446465172E-01 4.189843750000E+02 5.629616801051E-01-7.407808564961E-09
     1.500062483624E-10 0.000000000000E+00 8.070000000000E+02 0.000000000000E+00
     2.000000000000E+00 0.000000000000E+00-1.500000000000E-09-1.500000000000E-09
     4.284180000000E+05 1.000000000000E+00
C33 2021 06 24 23 00 00-9.383583674207E-04-1.973532448574E-12 0.000000000000E+00
     1.000000000000E+00-4.715625000000E+01 3.679438977688E-09 3.046739110970E+00
    -2.237036824226E-06 5.067638121545E-04 1.167319715023E-05 5.282625030518E+03
     4.284000000000E+05-4.749745130539E-08-2.531677065575E+00 6.519258022308E-08
     9.651686218901E-01 1.263906250000E+02-5.359479556522E-01-6.395623546249E-09
     8.061050060806E-10 0.000000000000E+00 8.070000000000E+02 0.000000000000E+00
     2.000000000000E+00 0.000000000000E+00-4.250000000000E-08-4.250000000000E-08
     4.284180000000E+05 1.000000000000E+00
C25 2021 06 24 23 00 00-8.958829566836E-04 5.686118242920E-12 0.000000000000E+00
     1.000000000000E+00 2.917187500000E+01 3.844088693152E-09 2.777642074342E-01
     1.353211700916E-06 3.596276510507E-04 1.075491309166E-05 5.282623601913E+03
     4.284000000000E+05 3.352761268616E-08-4.453909390632E-01-2.281740307808E-08
     9.508409031631E-01 1.369687500000E+02 1.304658211680E-01-6.573488097879E-09
    -8.714648714384E-10 0.000000000000E+00 8.070000000000E+02 0.000000000000E+00
     2.000000000000E+00 0.000000000000E+00 9.000000000000E-10 9.000000000000E-10
     4.284180000000E+05 1.000000000000E+00
C24 2021 06 24 23 00 00-9.082026081160E-04-1.745448230395E-11 0.000000000000E+00
     1.000000000000E+00 2.795312500000E+01 3.789800717555E-09 1.156223863673E+00
     1.383479684591E-06 3.825142048299E-04 1.083081588149E-05 5.282617214203E+03
     4.284000000000E+05-7.916241884232E-09-4.201089351091E-01-4.656612873077E-09
     9.495843428451E-01 1.374062500000E+02 7.795134408351E-02-6.512056967597E-09
    -8.221771041194E-10 0.000000000000E+00 8.070000000000E+02 0.000000000000E+00
     2.000000000000E+00 0.000000000000E+00 7.000000000000E-09 7.000000000000E-09
     4.284180000000E+05 1.000000000000E+00
C09 2021 06 24 23 00 00 4.232409410179E-04-2.853894898180E-11 0.000000000000E+00
     1.000000000000E+00 3.578125000000E+00 2.208306270534E-09-9.566007188539E-01
    -2.090819180012E-07 8.264621952549E-03 1.192558556795E-06 6.493531789780E+03
     4.284000000000E+05-1.159496605396E-07-1.508765501773E+00 1.443549990654E-08
     9.494167553387E-01 1.968437500000E+02-2.336475251253E+00-2.150089559860E-09
    -1.392915163365E-11 0.000000000000E+00 8.070000000000E+02 0.000000000000E+00
     2.000000000000E+00 0.000000000000E+00 7.100000000000E-09 3.400000000000E-09
     4.284180000000E+05 0.000000000000E+00
C06 2021 06 24 23 00 00 5.435557104647E-04 4.630162919739E-11 0.000000000000E+00
     1.000000000000E+00 2.050000000000E+01 2.273308978158E-09-6.716293138396E-01
     5.243346095085E-07 1.128240290564E-02 4.563480615616E-07 6.493649883270E+03
     4.284000000000E+05-1.066364347935E-07-1.551472480965E+00-1.094304025173E-07
     9.444320580146E-01 2.105312500000E+02-2.178604159997E+00-2.285095183387E-09
     7.536028191537E-11 0.000000000000E+00 8.070000000000E+02 0.000000000000E+00
     2.000000000000E+00 0.000000000000E+00 8.500000000000E-09-1.800000000000E-09
     4.284180000000E+05 0.000000000000E+00
C39 2021 06 24 23 00 00 3.201270010322E-05 1.660893644839E-13 0.000000000000E+00
     1.000000000000E+00 4.246875000000E+01 2.138660512366E-09 3.399413462073E-02
     1.085456460714E-06 1.994987716898E-03 1.495238393545E-06 6.493193578720E+03
     4.284000000000E+05-1.126900315285E-07-1.631753683011E+00-8.661299943924E-08
     9.604258956050E-01 1.857031250000E+02-2.985022672896E+00-2.096515899731E-09
     2.646538810393E-10 0.000000000000E+00 8.070000000000E+02 0.000000000000E+00
     2.000000000000E+00 0.000000000000E+00 4.200000000000E-09 4.200000000000E-09
     4.284180000000E+05 1.000000000000E+00
C13 2021 06 24 23 00 00 3.123556962237E-04 1.416822215106E-11-4.065758146821E-20
     6.000000000000E+00-9.898281250000E+02 7.653890243822E-10 1.533472638902E+00
    -3.232154995203E-05 3.765045781620E-03 5.791429430246E-06 6.493549489975E+03
     4.284000000000E+05 2.887099981308E-08 2.586441719862E+00 2.579763531685E-07
     1.005244796001E+00 5.910937500000E+01-2.615676601612E+00-2.083658221300E-09
    -4.685909472653E-10 0.000000000000E+00 8.070000000000E+02 0.000000000000E+00
     2.000000000000E+00 0.000000000000E+00-9.200000000000E-09 2.400000000000E-09
     4.284180000000E+05 5.000000000000E+00
C16 2021 06 24 23 00 00-9.203436784446E-04-2.474553895127E-11 0.000000000000E+00
     1.000000000000E+00 2.346875000000E+01 2.160804291886E-09-5.047960133859E-01
     4.898756742477E-07 3.790447022766E-03 7.818453013897E-07 6.493469017029E+03
     4.284000000000E+05-1.150183379650E-07-1.562589552401E+00-1.047737896442E-07
     9.597904464160E-01 2.062656250000E+02-2.412701041037E+00-2.140446301037E-09
     9.321816862518E-11 0.000000000000E+00 8.070000000000E+02 0.000000000000E+00
     2.000000000000E+00 0.000000000000E+00-2.800000000000E-09 4.100000000000E-09
     4.284180000000E+05 0.000000000000E+00
C10 2021 06 24 23 00 00-2.601114101708E-05 4.702904732312E-12 0.000000000000E+00
     1.000000000000E+00 9.336406250000E+02 6.853856919223E-10-2.712655160016E+00
     3.051757812500E-05 7.517053862102E-03 1.553958281875E-05 6.493021234512E+03
     4.284000000000E+05-1.685693860054E-07 4.378387283462E-01 1.122243702412E-07
     8.899866460990E-01-2.442656250000E+02-2.541982687074E+00-1.507562796042E-09
    -1.046472161195E-10 0.000000000000E+00 8.070000000000E+02 0.000000000000E+00
     2.000000000000E+00 0.000000000000E+00 6.500000000000E-09 2.700000000000E-09
     4.284180000000E+05 0.000000000000E+00
C38 2021 06 24 23 00 00 1.574506750330E-04 2.309263891220E-12 0.000000000000E+00
     1.000000000000E+00-9.376562500000E+02 9.225384274285E-10 2.241501278291E+00
    -3.047892823815E-05 1.897760317661E-03 6.674323230982E-06 6.492983791351E+03
     4.284000000000E+05-6.193295121193E-08 2.591208458485E+00 1.695007085800E-07
     9.783879856039E-01 2.532812500000E+01-3.049482920621E+00-2.046156659209E-09
    -3.857303529318E-10 0.000000000000E+00 8.070000000000E+02 0.000000000000E+00
     2.000000000000E+00 0.000000000000E+00 5.200000000000E-09 5.200000000000E-09
     4.284180000000E+05 1.000000000000E+00
